{
  "type": "FeatureCollection",
  "features": [
    {
      "type": "Feature",
      "properties": {
        "norad_id": 44333,
        "name": "AT&T T-16",
        "group": "intelsat",
        "lat": 0.03348324154006169,
        "lon": 108.49279033162779,
        "alt_km": 35783.64769458082,
        "timestamp": "2025-12-24T07:45:05.866750+00:00",
        "meta_object_name": "AT&T T-16",
        "meta_object_id": "2019-034A",
        "meta_epoch": "2025-12-23T03:21:38.542752",
        "meta_mean_motion": 1.00269221,
        "meta_eccentricity": 8.459e-05,
        "meta_inclination": 0.0204,
        "meta_ra_of_asc_node": 63.1564,
        "meta_arg_of_pericenter": 72.8406,
        "meta_mean_anomaly": 265.4876,
        "meta_ephemeris_type": 0,
        "meta_classification_type": "U",
        "meta_norad_cat_id": 44333,
        "meta_element_set_no": 999,
        "meta_rev_at_epoch": 2386,
        "meta_bstar": 0,
        "meta_mean_motion_dot": -9.4e-07,
        "meta_mean_motion_ddot": 0,
        "tle_line1": "1 44333U 19034A   25357.14002943 -.00000094  00000+0  00000+0 0  9991",
        "tle_line2": "2 44333   0.0204  63.1564 0000845  72.8406 265.4876  1.00269221 23864"
      },
      "geometry": {
        "type": "Point",
        "coordinates": [
          108.49279033162779,
          0.03348324154006169
        ]
      }
    },
    {
      "type": "Feature",
      "properties": {
        "norad_id": 44476,
        "name": "INTELSAT 39 (IS-39)",
        "group": "intelsat",
        "lat": -0.03864966803607949,
        "lon": -88.67921599872474,
        "alt_km": 35789.23217722614,
        "timestamp": "2025-12-24T07:45:05.866761+00:00",
        "meta_object_name": "INTELSAT 39 (IS-39)",
        "meta_object_id": "2019-049B",
        "meta_epoch": "2025-12-23T21:59:08.562912",
        "meta_mean_motion": 1.00270278,
        "meta_eccentricity": 0.00011489,
        "meta_inclination": 0.0162,
        "meta_ra_of_asc_node": 4.4755,
        "meta_arg_of_pericenter": 142.4583,
        "meta_mean_anomaly": 337.4949,
        "meta_ephemeris_type": 0,
        "meta_classification_type": "U",
        "meta_norad_cat_id": 44476,
        "meta_element_set_no": 999,
        "meta_rev_at_epoch": 2337,
        "meta_bstar": 0,
        "meta_mean_motion_dot": 5.5e-07,
        "meta_mean_motion_ddot": 0,
        "tle_line1": "1 44476U 19049B   25357.91607133  .00000055  00000+0  00000+0 0  9998",
        "tle_line2": "2 44476   0.0162   4.4755 0001148 142.4583 337.4949  1.00270278 23373"
      },
      "geometry": {
        "type": "Point",
        "coordinates": [
          -88.67921599872474,
          -0.03864966803607949
        ]
      }
    },
    {
      "type": "Feature",
      "properties": {
        "norad_id": 46114,
        "name": "GALAXY 30 (G-30)",
        "group": "intelsat",
        "lat": 0.03912593294547394,
        "lon": 84.366473827957,
        "alt_km": 35795.09381020519,
        "timestamp": "2025-12-24T07:45:05.866772+00:00",
        "meta_object_name": "GALAXY 30 (G-30)",
        "meta_object_id": "2020-056C",
        "meta_epoch": "2025-12-23T12:01:58.978848",
        "meta_mean_motion": 1.00270252,
        "meta_eccentricity": 0.00020441,
        "meta_inclination": 0.0186,
        "meta_ra_of_asc_node": 17.2667,
        "meta_arg_of_pericenter": 250.3763,
        "meta_mean_anomaly": 240.1441,
        "meta_ephemeris_type": 0,
        "meta_classification_type": "U",
        "meta_norad_cat_id": 46114,
        "meta_element_set_no": 999,
        "meta_rev_at_epoch": 1953,
        "meta_bstar": 0,
        "meta_mean_motion_dot": 5.8e-07,
        "meta_mean_motion_ddot": 0,
        "tle_line1": "1 46114U 20056C   25357.50137707  .00000058  00000+0  00000+0 0  9992",
        "tle_line2": "2 46114   0.0186  17.2667 0002044 250.3763 240.1441  1.00270252 19531"
      },
      "geometry": {
        "type": "Point",
        "coordinates": [
          84.366473827957,
          0.03912593294547394
        ]
      }
    },
    {
      "type": "Feature",
      "properties": {
        "norad_id": 54026,
        "name": "GALAXY 33 (G-33)",
        "group": "intelsat",
        "lat": 0.023913353048626705,
        "lon": 76.37611886086329,
        "alt_km": 35792.63757873114,
        "timestamp": "2025-12-24T07:45:05.866784+00:00",
        "meta_object_name": "GALAXY 33 (G-33)",
        "meta_object_id": "2022-128A",
        "meta_epoch": "2025-12-22T11:35:15.906336",
        "meta_mean_motion": 1.00271669,
        "meta_eccentricity": 0.00015964,
        "meta_inclination": 0.0184,
        "meta_ra_of_asc_node": 305.6803,
        "meta_arg_of_pericenter": 318.2802,
        "meta_mean_anomaly": 228.1459,
        "meta_ephemeris_type": 0,
        "meta_classification_type": "U",
        "meta_norad_cat_id": 54026,
        "meta_element_set_no": 999,
        "meta_rev_at_epoch": 1197,
        "meta_bstar": 0,
        "meta_mean_motion_dot": 1.01e-06,
        "meta_mean_motion_ddot": 0,
        "tle_line1": "1 54026U 22128A   25356.48282299  .00000101  00000+0  00000+0 0  9997",
        "tle_line2": "2 54026   0.0184 305.6803 0001596 318.2802 228.1459  1.00271669 11973"
      },
      "geometry": {
        "type": "Point",
        "coordinates": [
          76.37611886086329,
          0.023913353048626705
        ]
      }
    },
    {
      "type": "Feature",
      "properties": {
        "norad_id": 54027,
        "name": "GALAXY 34 (G-34)",
        "group": "intelsat",
        "lat": 0.043363071992914004,
        "lon": 80.40856238918492,
        "alt_km": 35794.131065954716,
        "timestamp": "2025-12-24T07:45:05.866796+00:00",
        "meta_object_name": "GALAXY 34 (G-34)",
        "meta_object_id": "2022-128B",
        "meta_epoch": "2025-12-23T15:56:35.633184",
        "meta_mean_motion": 1.00269552,
        "meta_eccentricity": 0.00017697,
        "meta_inclination": 0.0227,
        "meta_ra_of_asc_node": 350.2432,
        "meta_arg_of_pericenter": 273.0766,
        "meta_mean_anomaly": 299.324,
        "meta_ephemeris_type": 0,
        "meta_classification_type": "U",
        "meta_norad_cat_id": 54027,
        "meta_element_set_no": 999,
        "meta_rev_at_epoch": 1215,
        "meta_bstar": 0,
        "meta_mean_motion_dot": 0,
        "meta_mean_motion_ddot": 0,
        "tle_line1": "1 54027U 22128B   25357.66430131  .00000000  00000+0  00000+0 0  9997",
        "tle_line2": "2 54027   0.0227 350.2432 0001769 273.0766 299.3240  1.00269552 12152"
      },
      "geometry": {
        "type": "Point",
        "coordinates": [
          80.40856238918492,
          0.043363071992914004
        ]
      }
    },
    {
      "type": "Feature",
      "properties": {
        "norad_id": 54243,
        "name": "GALAXY 31 (G-31)",
        "group": "intelsat",
        "lat": 0.012499721217806108,
        "lon": 88.367088786583,
        "alt_km": 35792.24037607511,
        "timestamp": "2025-12-24T07:45:05.866807+00:00",
        "meta_object_name": "GALAXY 31 (G-31)",
        "meta_object_id": "2022-153A",
        "meta_epoch": "2025-12-23T15:58:50.418048",
        "meta_mean_motion": 1.00271329,
        "meta_eccentricity": 0.00014745,
        "meta_inclination": 0.0283,
        "meta_ra_of_asc_node": 245.972,
        "meta_arg_of_pericenter": 36.0828,
        "meta_mean_anomaly": 289.1035,
        "meta_ephemeris_type": 0,
        "meta_classification_type": "U",
        "meta_norad_cat_id": 54243,
        "meta_element_set_no": 999,
        "meta_rev_at_epoch": 537,
        "meta_bstar": 0,
        "meta_mean_motion_dot": 3.4e-07,
        "meta_mean_motion_ddot": 0,
        "tle_line1": "1 54243U 22153A   25357.66586132  .00000034  00000+0  00000+0 0  9995",
        "tle_line2": "2 54243   0.0283 245.9720 0001474  36.0828 289.1035  1.00271329  5373"
      },
      "geometry": {
        "type": "Point",
        "coordinates": [
          88.367088786583,
          0.012499721217806108
        ]
      }
    },
    {
      "type": "Feature",
      "properties": {
        "norad_id": 54244,
        "name": "GALAXY 32 (G-32)",
        "group": "intelsat",
        "lat": 0.028633155093060306,
        "lon": 118.36282069370665,
        "alt_km": 35794.4103262373,
        "timestamp": "2025-12-24T07:45:05.866819+00:00",
        "meta_object_name": "GALAXY 32 (G-32)",
        "meta_object_id": "2022-153B",
        "meta_epoch": "2025-12-22T07:35:47.616576",
        "meta_mean_motion": 1.00270236,
        "meta_eccentricity": 0.00019823,
        "meta_inclination": 0.0109,
        "meta_ra_of_asc_node": 353.9495,
        "meta_arg_of_pericenter": 325.6757,
        "meta_mean_anomaly": 154.4441,
        "meta_ephemeris_type": 0,
        "meta_classification_type": "U",
        "meta_norad_cat_id": 54244,
        "meta_element_set_no": 999,
        "meta_rev_at_epoch": 1137,
        "meta_bstar": 0,
        "meta_mean_motion_dot": -1.52e-06,
        "meta_mean_motion_ddot": 0,
        "tle_line1": "1 54244U 22153B   25356.31652334 -.00000152  00000+0  00000+0 0  9997",
        "tle_line2": "2 54244   0.0109 353.9495 0001982 325.6757 154.4441  1.00270236 11370"
      },
      "geometry": {
        "type": "Point",
        "coordinates": [
          118.36282069370665,
          0.028633155093060306
        ]
      }
    }
  ]
}